start=new Date('2022-07-19T00:00:00.000Z').valueOf();
sats=[{"DECAY_DATE":null,"REV_AT_EPOCH":"8311","REF_FRAME":"TEME","RCS_SIZE":"LARGE","GP_ID":"208374757","CLASSIFICATION_TYPE":"U","BSTAR":"-0.00005612800000","NORAD_CAT_ID":"47383","MEAN_ANOMALY":"301.4429","MEAN_MOTION_DDOT":"0.0000000000000","MEAN_MOTION_DOT":"-0.00001117","EPOCH":"2022-07-18T11:47:33.980928","TIME_SYSTEM":"UTC","SEMIMAJOR_AXIS":"6925.366","LAUNCH_DATE":"2021-01-20","ECCENTRICITY":"0.00015650","CENTER_NAME":"EARTH","SITE":"AFETR","EPHEMERIS_TYPE":"0","PERIAPSIS":"546.148","RA_OF_ASC_NODE":"233.1212","PERIOD":"95.593","OBJECT_TYPE":"PAYLOAD","OBJECT_NAME":"STARLINK-2103","TLE_LINE1":"1 47383U 21005AL  22199.49136552 -.00001117  00000-0 -56128-4 0  9999","TLE_LINE2":"2 47383  53.0519 233.1212 0001565  58.6713 301.4429 15.06394184 83118","ELEMENT_SET_NO":"999","APOAPSIS":"548.315","INCLINATION":"53.0519","MEAN_ELEMENT_THEORY":"SGP4","OBJECT_ID":"2021-005AL","FILE":"3516915","ARG_OF_PERICENTER":"58.6713","COUNTRY_CODE":"US","MEAN_MOTION":"15.06394184"},{"LAUNCH_DATE":"2021-01-20","SEMIMAJOR_AXIS":"6925.328","ECCENTRICITY":"0.00013980","CENTER_NAME":"EARTH","MEAN_MOTION_DDOT":"0.0000000000000","MEAN_MOTION_DOT":"0.00003339","TIME_SYSTEM":"UTC","EPOCH":"2022-07-18T14:10:56.676864","PERIAPSIS":"546.225","RA_OF_ASC_NODE":"242.9032","PERIOD":"95.592","SITE":"AFETR","EPHEMERIS_TYPE":"0","REV_AT_EPOCH":"8298","DECAY_DATE":null,"RCS_SIZE":"LARGE","REF_FRAME":"TEME","NORAD_CAT_ID":"47384","MEAN_ANOMALY":"287.4165","GP_ID":"208405439","CLASSIFICATION_TYPE":"U","BSTAR":"0.00024292000000","INCLINATION":"53.0511","OBJECT_ID":"2021-005AM","MEAN_ELEMENT_THEORY":"SGP4","FILE":"3517175","ARG_OF_PERICENTER":"72.6976","ELEMENT_SET_NO":"999","APOAPSIS":"548.161","MEAN_MOTION":"15.06406656","COUNTRY_CODE":"US","OBJECT_NAME":"STARLINK-2104","OBJECT_TYPE":"PAYLOAD","TLE_LINE1":"1 47384U 21005AM  22199.59093376  .00003339  00000-0  24292-3 0  9999","TLE_LINE2":"2 47384  53.0511 242.9032 0001398  72.6976 287.4165 15.06406656 82982"},{"INCLINATION":"53.0514","OBJECT_ID":"2021-005AN","MEAN_ELEMENT_THEORY":"SGP4","ARG_OF_PERICENTER":"60.9443","FILE":"3517175","ELEMENT_SET_NO":"999","APOAPSIS":"548.229","MEAN_MOTION":"15.06391740","COUNTRY_CODE":"US","OBJECT_TYPE":"PAYLOAD","OBJECT_NAME":"STARLINK-2105","TLE_LINE1":"1 47385U 21005AN  22199.58722402  .00000919  00000-0  80621-4 0  9998","TLE_LINE2":"2 47385  53.0514 242.6887 0001429  60.9443 299.1689 15.06391740 82983","LAUNCH_DATE":"2021-01-20","SEMIMAJOR_AXIS":"6925.374","ECCENTRICITY":"0.00014290","CENTER_NAME":"EARTH","MEAN_MOTION_DDOT":"0.0000000000000","MEAN_MOTION_DOT":"0.00000919","TIME_SYSTEM":"UTC","EPOCH":"2022-07-18T14:05:36.155328","PERIAPSIS":"546.249","RA_OF_ASC_NODE":"242.6887","PERIOD":"95.593","SITE":"AFETR","EPHEMERIS_TYPE":"0","REV_AT_EPOCH":"8298","DECAY_DATE":null,"REF_FRAME":"TEME","RCS_SIZE":"LARGE","NORAD_CAT_ID":"47385","MEAN_ANOMALY":"299.1689","CLASSIFICATION_TYPE":"U","GP_ID":"208405689","BSTAR":"0.00008062100000"},{"PERIAPSIS":"546.137","RA_OF_ASC_NODE":"242.5537","PERIOD":"95.593","SITE":"AFETR","EPHEMERIS_TYPE":"0","ECCENTRICITY":"0.00015930","LAUNCH_DATE":"2021-01-20","SEMIMAJOR_AXIS":"6925.375","CENTER_NAME":"EARTH","MEAN_MOTION_DDOT":"0.0000000000000","MEAN_MOTION_DOT":"-0.00002071","EPOCH":"2022-07-18T14:48:04.043808","TIME_SYSTEM":"UTC","NORAD_CAT_ID":"47386","MEAN_ANOMALY":"299.7180","GP_ID":"208406939","CLASSIFICATION_TYPE":"U","BSTAR":"-0.00012021000000","DECAY_DATE":null,"REV_AT_EPOCH":"8299","RCS_SIZE":"LARGE","REF_FRAME":"TEME","MEAN_MOTION":"15.06391225","COUNTRY_CODE":"US","INCLINATION":"53.0543","MEAN_ELEMENT_THEORY":"SGP4","OBJECT_ID":"2021-005AP","ARG_OF_PERICENTER":"60.3968","FILE":"3517175","ELEMENT_SET_NO":"999","APOAPSIS":"548.344","TLE_LINE2":"2 47386  53.0543 242.5537 0001593  60.3968 299.7180 15.06391225 82996","OBJECT_TYPE":"PAYLOAD","OBJECT_NAME":"STARLINK-2106","TLE_LINE1":"1 47386U 21005AP  22199.61671347 -.00002071  00000-0 -12021-3 0  9995"},{"TLE_LINE2":"2 47387  53.0536 272.3130 0001417  85.4264 274.6887 15.06390704 82572","TLE_LINE1":"1 47387U 21005AQ  22199.66923322 -.00000942  00000-0 -44360-4 0  9991","OBJECT_NAME":"STARLINK-2108","OBJECT_TYPE":"PAYLOAD","COUNTRY_CODE":"US","MEAN_MOTION":"15.06390704","APOAPSIS":"548.223","ELEMENT_SET_NO":"999","ARG_OF_PERICENTER":"85.4264","FILE":"3517175","OBJECT_ID":"2021-005AQ","MEAN_ELEMENT_THEORY":"SGP4","INCLINATION":"53.0536","BSTAR":"-0.00004436000000","CLASSIFICATION_TYPE":"U","GP_ID":"208407177","MEAN_ANOMALY":"274.6887","NORAD_CAT_ID":"47387","REF_FRAME":"TEME","RCS_SIZE":"LARGE","REV_AT_EPOCH":"8257","DECAY_DATE":null,"EPHEMERIS_TYPE":"0","SITE":"AFETR","PERIOD":"95.593","RA_OF_ASC_NODE":"272.3130","PERIAPSIS":"546.261","TIME_SYSTEM":"UTC","EPOCH":"2022-07-18T16:03:41.750208","MEAN_MOTION_DOT":"-0.00000942","MEAN_MOTION_DDOT":"0.0000000000000","CENTER_NAME":"EARTH","LAUNCH_DATE":"2021-01-20","ECCENTRICITY":"0.00014170","SEMIMAJOR_AXIS":"6925.377"},{"OBJECT_NAME":"STARLINK-2109","OBJECT_TYPE":"PAYLOAD","TLE_LINE1":"1 47388U 21005AR  22199.48493378  .00001253  00000-0  10300-3 0  9995","TLE_LINE2":"2 47388  53.0525 273.1396 0001397  68.2554 291.8583 15.06390674 83506","ELEMENT_SET_NO":"999","APOAPSIS":"548.210","INCLINATION":"53.0525","OBJECT_ID":"2021-005AR","MEAN_ELEMENT_THEORY":"SGP4","FILE":"3517029","ARG_OF_PERICENTER":"68.2554","COUNTRY_CODE":"US","MEAN_MOTION":"15.06390674","DECAY_DATE":null,"REV_AT_EPOCH":"8350","RCS_SIZE":"LARGE","REF_FRAME":"TEME","GP_ID":"208381500","CLASSIFICATION_TYPE":"U","BSTAR":"0.00010300000000","NORAD_CAT_ID":"47388","MEAN_ANOMALY":"291.8583","MEAN_MOTION_DDOT":"0.0000000000000","MEAN_MOTION_DOT":"0.00001253","TIME_SYSTEM":"UTC","EPOCH":"2022-07-18T11:38:18.278592","ECCENTRICITY":"0.00013970","LAUNCH_DATE":"2021-01-20","SEMIMAJOR_AXIS":"6925.377","CENTER_NAME":"EARTH","SITE":"AFETR","EPHEMERIS_TYPE":"0","PERIAPSIS":"546.275","RA_OF_ASC_NODE":"273.1396","PERIOD":"95.593"},{"REV_AT_EPOCH":"8281","DECAY_DATE":null,"RCS_SIZE":"LARGE","REF_FRAME":"TEME","CLASSIFICATION_TYPE":"U","GP_ID":"208376249","BSTAR":"0.00009447600000","NORAD_CAT_ID":"47389","MEAN_ANOMALY":"308.7930","MEAN_MOTION_DDOT":"0.0000000000000","MEAN_MOTION_DOT":"0.00001126","TIME_SYSTEM":"UTC","EPOCH":"2022-07-18T09:32:12.349824","ECCENTRICITY":"0.00016190","LAUNCH_DATE":"2021-01-20","SEMIMAJOR_AXIS":"6925.351","CENTER_NAME":"EARTH","SITE":"AFETR","EPHEMERIS_TYPE":"0","PERIAPSIS":"546.095","RA_OF_ASC_NODE":"253.5311","PERIOD":"95.592","OBJECT_NAME":"STARLINK-2110","OBJECT_TYPE":"PAYLOAD","TLE_LINE1":"1 47389U 21005AS  22199.39736516  .00001126  00000-0  94476-4 0  9996","TLE_LINE2":"2 47389  53.0536 253.5311 0001619  51.3204 308.7930 15.06399171 82818","ELEMENT_SET_NO":"999","APOAPSIS":"548.337","INCLINATION":"53.0536","OBJECT_ID":"2021-005AS","MEAN_ELEMENT_THEORY":"SGP4","FILE":"3516915","ARG_OF_PERICENTER":"51.3204","COUNTRY_CODE":"US","MEAN_MOTION":"15.06399171"},{"BSTAR":"-0.00002919100000","CLASSIFICATION_TYPE":"U","GP_ID":"208374508","MEAN_ANOMALY":"289.7349","NORAD_CAT_ID":"47390","RCS_SIZE":"LARGE","REF_FRAME":"TEME","REV_AT_EPOCH":"8253","DECAY_DATE":null,"EPHEMERIS_TYPE":"0","SITE":"AFETR","PERIOD":"95.593","RA_OF_ASC_NODE":"273.5635","PERIAPSIS":"546.329","TIME_SYSTEM":"UTC","EPOCH":"2022-07-18T09:25:36.368256","MEAN_MOTION_DOT":"-0.00000716","MEAN_MOTION_DDOT":"0.0000000000000","CENTER_NAME":"EARTH","SEMIMAJOR_AXIS":"6925.373","LAUNCH_DATE":"2021-01-20","ECCENTRICITY":"0.00013120","TLE_LINE2":"2 47390  53.0531 273.5635 0001312  70.3782 289.7349 15.06392145 82533","TLE_LINE1":"1 47390U 21005AT  22199.39278204 -.00000716  00000-0 -29191-4 0  9991","OBJECT_TYPE":"PAYLOAD","OBJECT_NAME":"STARLINK-2111","COUNTRY_CODE":"US","MEAN_MOTION":"15.06392145","APOAPSIS":"548.146","ELEMENT_SET_NO":"999","FILE":"3516915","ARG_OF_PERICENTER":"70.3782","MEAN_ELEMENT_THEORY":"SGP4","OBJECT_ID":"2021-005AT","INCLINATION":"53.0531"},{"DECAY_DATE":null,"REV_AT_EPOCH":"8297","RCS_SIZE":"LARGE","REF_FRAME":"TEME","CLASSIFICATION_TYPE":"U","GP_ID":"208374758","BSTAR":"-0.00005243900000","NORAD_CAT_ID":"47391","MEAN_ANOMALY":"306.5699","MEAN_MOTION_DDOT":"0.0000000000000","TIME_SYSTEM":"UTC","EPOCH":"2022-07-18T12:49:55.646976","MEAN_MOTION_DOT":"-0.00001063","LAUNCH_DATE":"2021-01-20","SEMIMAJOR_AXIS":"6925.326","ECCENTRICITY":"0.00015370","CENTER_NAME":"EARTH","EPHEMERIS_TYPE":"0","SITE":"AFETR","PERIAPSIS":"546.127","PERIOD":"95.592","RA_OF_ASC_NODE":"242.9268","TLE_LINE1":"1 47391U 21005AU  22199.53467184 -.00001063  00000-0 -52439-4 0  9992","OBJECT_TYPE":"PAYLOAD","OBJECT_NAME":"STARLINK-2112","TLE_LINE2":"2 47391  53.0530 242.9268 0001537  53.5432 306.5699 15.06407274 82973","ELEMENT_SET_NO":"999","APOAPSIS":"548.256","INCLINATION":"53.0530","ARG_OF_PERICENTER":"53.5432","FILE":"3516915","MEAN_ELEMENT_THEORY":"SGP4","OBJECT_ID":"2021-005AU","COUNTRY_CODE":"US","MEAN_MOTION":"15.06407274"},{"TLE_LINE1":"1 47392U 21005AV  22199.40292436 -.00000846  00000-0 -37902-4 0  9991","OBJECT_NAME":"STARLINK-2113","OBJECT_TYPE":"PAYLOAD","TLE_LINE2":"2 47392  53.0524 243.5168 0001441  75.3021 284.8127 15.06398301 82955","INCLINATION":"53.0524","FILE":"3516915","ARG_OF_PERICENTER":"75.3021","MEAN_ELEMENT_THEORY":"SGP4","OBJECT_ID":"2021-005AV","ELEMENT_SET_NO":"999","APOAPSIS":"548.217","MEAN_MOTION":"15.06398301","COUNTRY_CODE":"US","DECAY_DATE":null,"REV_AT_EPOCH":"8295","RCS_SIZE":"LARGE","REF_FRAME":"TEME","NORAD_CAT_ID":"47392","MEAN_ANOMALY":"284.8127","GP_ID":"208375507","CLASSIFICATION_TYPE":"U","BSTAR":"-0.00003790200000","LAUNCH_DATE":"2021-01-20","ECCENTRICITY":"0.00014410","SEMIMAJOR_AXIS":"6925.354","CENTER_NAME":"EARTH","MEAN_MOTION_DDOT":"0.0000000000000","TIME_SYSTEM":"UTC","EPOCH":"2022-07-18T09:40:12.664704","MEAN_MOTION_DOT":"-0.00000846","PERIAPSIS":"546.221","PERIOD":"95.592","RA_OF_ASC_NODE":"243.5168","EPHEMERIS_TYPE":"0","SITE":"AFETR"}];
